SL-8 R/B                
1 11574U 79089B   26084.35132548  .00000232  00000+0  78176-4 0  9991
2 11574  74.0679  62.0487 0016856 232.8190 127.1429 14.42359244438369
SL-14 R/B               
1 11672U 80005B   26084.29802546  .00000550  00000+0  52951-4 0  9991
2 11672  82.5116 292.4278 0017184 109.5801 250.7276 14.90947067478815
SL-8 R/B                
1 12139U 81003B   26084.49433511  .00022514  00000+0  56619-3 0  9991
2 12139  82.9350 275.4019 0261169 123.6099 239.0357 15.11649481317064
SL-3 R/B                
1 12465U 81046B   26084.61599534  .00011563  00000+0  26555-3 0  9990
2 12465  81.2287 270.6103 0018354 326.1057  33.9012 15.42376699440886
SL-3 R/B                
1 12904U 81103B   26084.55620319  .00005074  00000+0  22359-3 0  9999
2 12904  81.1605 194.8201 0012674 229.7472 130.2652 15.21562387975647
SL-3 R/B                
1 13068U 82013B   26084.55785983  .00004068  00000+0  17492-3 0  9995
2 13068  81.1742 142.1720 0023420 125.2273 235.1156 15.22159064406764
SL-3 R/B                
1 13154U 82039B   26084.55919172  .00002581  00000+0  15531-3 0  9998
2 13154  81.1571 197.6641 0028848 272.1658  87.6264 15.10167447384031
SL-3 R/B                
1 13403U 82079B   26084.61209907  .00005452  00000+0  21539-3 0  9999
2 13403  81.1481 174.2777 0025533 112.3283 248.0661 15.25012072380125
SL-14 R/B               
1 13553U 82092B   26084.19210441  .00000425  00000+0  44935-4 0  9999
2 13553  82.5664 126.8978 0018867 248.0519 177.8246 14.86679922331231
SL-3 R/B                
1 13819U 83010B   26084.15894829  .00013701  00000+0  27048-3 0  9995
2 13819  81.1050 343.2767 0016395 359.1120   1.0093 15.46876068360335
SL-3 R/B                
1 14208U 83075B   26084.55592051  .00011534  00000+0  30058-3 0  9992
2 14208  97.6147  89.7387 0021880 167.7665 192.4115 15.38783472332593
COSMOS 1536             
1 14699U 84013A   26084.47877853  .00006443  00000+0  26388-3 0  9990
2 14699  82.5422  92.1488 0013033 220.8522 139.1739 15.24033367275020
SL-14 R/B               
1 14820U 84027B   26084.65202484  .00000515  00000+0  56047-4 0  9993
2 14820  82.5409 230.0399 0016490 281.5821  78.3544 14.85992360250003
SL-8 R/B                
1 15483U 85006B   26084.45140903  .00000325  00000+0  11625-3 0  9993
2 15483  74.0444 232.1428 0017810 145.5024 270.1591 14.37794350156297
SL-12 R/B(2)            
1 15772U 85042D   26084.40167387  .00000151  00000+0  89510-4 0  9990
2 15772  71.1078  54.5308 0032858 102.0861  63.5395 14.21986705116627
SL-14 R/B               
1 15945U 85069B   26084.49732146  .00000508  00000+0  54546-4 0  9998
2 15945  82.5304  10.0725 0019817 136.5027 223.7757 14.86449881175181
SL-16 R/B               
1 16182U 85097B   26084.38693253  .00000103  00000+0  75685-4 0  9994
2 16182  71.0009 107.5060 0009519 241.3156 214.2740 14.16603118 89459
