[{"OBJECT_NAME":"SL-8 R/B","OBJECT_ID":"1979-089B","EPOCH":"2026-03-25T08:25:54.521472","MEAN_MOTION":14.42359244,"ECCENTRICITY":0.00168561,"INCLINATION":74.0679,"RA_OF_ASC_NODE":62.0487,"ARG_OF_PERICENTER":232.819,"MEAN_ANOMALY":127.1429,"EPHEMERIS_TYPE":0,"CLASSIFICATION_TYPE":"U","NORAD_CAT_ID":11574,"ELEMENT_SET_NO":999,"REV_AT_EPOCH":43836,"BSTAR":7.817635e-5,"MEAN_MOTION_DOT":2.32e-6,"MEAN_MOTION_DDOT":0},{"OBJECT_NAME":"SL-14 R/B","OBJECT_ID":"1980-005B","EPOCH":"2026-03-25T07:09:09.399744","MEAN_MOTION":14.90947067,"ECCENTRICITY":0.0017184,"INCLINATION":82.5116,"RA_OF_ASC_NODE":292.4278,"ARG_OF_PERICENTER":109.5801,"MEAN_ANOMALY":250.7276,"EPHEMERIS_TYPE":0,"CLASSIFICATION_TYPE":"U","NORAD_CAT_ID":11672,"ELEMENT_SET_NO":999,"REV_AT_EPOCH":47881,"BSTAR":5.2951303e-5,"MEAN_MOTION_DOT":5.5e-6,"MEAN_MOTION_DDOT":0},{"OBJECT_NAME":"SL-8 R/B","OBJECT_ID":"1981-003B","EPOCH":"2026-03-25T11:51:50.553504","MEAN_MOTION":15.11649481,"ECCENTRICITY":0.02611696,"INCLINATION":82.935,"RA_OF_ASC_NODE":275.4019,"ARG_OF_PERICENTER":123.6099,"MEAN_ANOMALY":239.0357,"EPHEMERIS_TYPE":0,"CLASSIFICATION_TYPE":"U","NORAD_CAT_ID":12139,"ELEMENT_SET_NO":999,"REV_AT_EPOCH":31706,"BSTAR":0.00056618599,"MEAN_MOTION_DOT":0.00022514,"MEAN_MOTION_DDOT":0},{"OBJECT_NAME":"SL-3 R/B","OBJECT_ID":"1981-046B","EPOCH":"2026-03-25T14:47:01.997376","MEAN_MOTION":15.42376699,"ECCENTRICITY":0.00183549,"INCLINATION":81.2287,"RA_OF_ASC_NODE":270.6103,"ARG_OF_PERICENTER":326.1057,"MEAN_ANOMALY":33.9012,"EPHEMERIS_TYPE":0,"CLASSIFICATION_TYPE":"U","NORAD_CAT_ID":12465,"ELEMENT_SET_NO":999,"REV_AT_EPOCH":44088,"BSTAR":0.00026555476,"MEAN_MOTION_DOT":0.00011563,"MEAN_MOTION_DDOT":0},{"OBJECT_NAME":"SL-3 R/B","OBJECT_ID":"1981-103B","EPOCH":"2026-03-25T13:20:55.955616","MEAN_MOTION":15.21562387,"ECCENTRICITY":0.00126743,"INCLINATION":81.1605,"RA_OF_ASC_NODE":194.8201,"ARG_OF_PERICENTER":229.7472,"MEAN_ANOMALY":130.2652,"EPHEMERIS_TYPE":0,"CLASSIFICATION_TYPE":"U","NORAD_CAT_ID":12904,"ELEMENT_SET_NO":999,"REV_AT_EPOCH":97564,"BSTAR":0.00022359133,"MEAN_MOTION_DOT":5.074e-5,"MEAN_MOTION_DDOT":0},{"OBJECT_NAME":"SL-3 R/B","OBJECT_ID":"1982-013B","EPOCH":"2026-03-25T13:23:19.089312","MEAN_MOTION":15.22159064,"ECCENTRICITY":0.00234209,"INCLINATION":81.1742,"RA_OF_ASC_NODE":142.172,"ARG_OF_PERICENTER":125.2273,"MEAN_ANOMALY":235.1156,"EPHEMERIS_TYPE":0,"CLASSIFICATION_TYPE":"U","NORAD_CAT_ID":13068,"ELEMENT_SET_NO":999,"REV_AT_EPOCH":40676,"BSTAR":0.00017491518,"MEAN_MOTION_DOT":4.068e-5,"MEAN_MOTION_DDOT":0},{"OBJECT_NAME":"SL-3 R/B","OBJECT_ID":"1982-039B","EPOCH":"2026-03-25T13:25:14.164608","MEAN_MOTION":15.10167447,"ECCENTRICITY":0.00288482,"INCLINATION":81.1571,"RA_OF_ASC_NODE":197.6641,"ARG_OF_PERICENTER":272.1658,"MEAN_ANOMALY":87.6264,"EPHEMERIS_TYPE":0,"CLASSIFICATION_TYPE":"U","NORAD_CAT_ID":13154,"ELEMENT_SET_NO":999,"REV_AT_EPOCH":38403,"BSTAR":0.00015530702,"MEAN_MOTION_DOT":2.581e-5,"MEAN_MOTION_DDOT":0},{"OBJECT_NAME":"SL-3 R/B","OBJECT_ID":"1982-079B","EPOCH":"2026-03-25T14:41:25.359648","MEAN_MOTION":15.25012072,"ECCENTRICITY":0.00255336,"INCLINATION":81.1481,"RA_OF_ASC_NODE":174.2777,"ARG_OF_PERICENTER":112.3283,"MEAN_ANOMALY":248.0661,"EPHEMERIS_TYPE":0,"CLASSIFICATION_TYPE":"U","NORAD_CAT_ID":13403,"ELEMENT_SET_NO":999,"REV_AT_EPOCH":38012,"BSTAR":0.00021539081,"MEAN_MOTION_DOT":5.452e-5,"MEAN_MOTION_DDOT":0},{"OBJECT_NAME":"SL-14 R/B","OBJECT_ID":"1982-092B","EPOCH":"2026-03-25T04:36:37.821024","MEAN_MOTION":14.86679922,"ECCENTRICITY":0.0018867,"INCLINATION":82.5664,"RA_OF_ASC_NODE":126.8978,"ARG_OF_PERICENTER":248.0519,"MEAN_ANOMALY":177.8246,"EPHEMERIS_TYPE":0,"CLASSIFICATION_TYPE":"U","NORAD_CAT_ID":13553,"ELEMENT_SET_NO":999,"REV_AT_EPOCH":33123,"BSTAR":4.4934977e-5,"MEAN_MOTION_DOT":4.25e-6,"MEAN_MOTION_DDOT":0},{"OBJECT_NAME":"SL-3 R/B","OBJECT_ID":"1983-010B","EPOCH":"2026-03-25T03:48:53.132256","MEAN_MOTION":15.46876068,"ECCENTRICITY":0.00163955,"INCLINATION":81.105,"RA_OF_ASC_NODE":343.2767,"ARG_OF_PERICENTER":359.112,"MEAN_ANOMALY":1.0093,"EPHEMERIS_TYPE":0,"CLASSIFICATION_TYPE":"U","NORAD_CAT_ID":13819,"ELEMENT_SET_NO":999,"REV_AT_EPOCH":36033,"BSTAR":0.00027048244,"MEAN_MOTION_DOT":0.00013701,"MEAN_MOTION_DDOT":0},{"OBJECT_NAME":"SL-3 R/B","OBJECT_ID":"1983-075B","EPOCH":"2026-03-25T13:20:31.532064","MEAN_MOTION":15.38783472,"ECCENTRICITY":0.00218804,"INCLINATION":97.6147,"RA_OF_ASC_NODE":89.7387,"ARG_OF_PERICENTER":167.7665,"MEAN_ANOMALY":192.4115,"EPHEMERIS_TYPE":0,"CLASSIFICATION_TYPE":"U","NORAD_CAT_ID":14208,"ELEMENT_SET_NO":999,"REV_AT_EPOCH":33259,"BSTAR":0.00030057961,"MEAN_MOTION_DOT":0.00011534,"MEAN_MOTION_DDOT":0},{"OBJECT_NAME":"COSMOS 1536","OBJECT_ID":"1984-013A","EPOCH":"2026-03-25T11:29:26.464992","MEAN_MOTION":15.24033367,"ECCENTRICITY":0.00130332,"INCLINATION":82.5422,"RA_OF_ASC_NODE":92.1488,"ARG_OF_PERICENTER":220.8522,"MEAN_ANOMALY":139.1739,"EPHEMERIS_TYPE":0,"CLASSIFICATION_TYPE":"U","NORAD_CAT_ID":14699,"ELEMENT_SET_NO":999,"REV_AT_EPOCH":27502,"BSTAR":0.00026388111,"MEAN_MOTION_DOT":6.443e-5,"MEAN_MOTION_DDOT":0},{"OBJECT_NAME":"SL-14 R/B","OBJECT_ID":"1984-027B","EPOCH":"2026-03-25T15:38:54.946176","MEAN_MOTION":14.8599236,"ECCENTRICITY":0.00164905,"INCLINATION":82.5409,"RA_OF_ASC_NODE":230.0399,"ARG_OF_PERICENTER":281.5821,"MEAN_ANOMALY":78.3544,"EPHEMERIS_TYPE":0,"CLASSIFICATION_TYPE":"U","NORAD_CAT_ID":14820,"ELEMENT_SET_NO":999,"REV_AT_EPOCH":25000,"BSTAR":5.6046771e-5,"MEAN_MOTION_DOT":5.15e-6,"MEAN_MOTION_DDOT":0},{"OBJECT_NAME":"SL-8 R/B","OBJECT_ID":"1985-006B","EPOCH":"2026-03-25T10:50:01.740192","MEAN_MOTION":14.3779435,"ECCENTRICITY":0.00178109,"INCLINATION":74.0444,"RA_OF_ASC_NODE":232.1428,"ARG_OF_PERICENTER":145.5024,"MEAN_ANOMALY":270.1591,"EPHEMERIS_TYPE":0,"CLASSIFICATION_TYPE":"U","NORAD_CAT_ID":15483,"ELEMENT_SET_NO":999,"REV_AT_EPOCH":15629,"BSTAR":0.00011624805,"MEAN_MOTION_DOT":3.25e-6,"MEAN_MOTION_DDOT":0},{"OBJECT_NAME":"SL-12 R/B(2)","OBJECT_ID":"1985-042D","EPOCH":"2026-03-25T09:38:24.622368","MEAN_MOTION":14.21986705,"ECCENTRICITY":0.00328583,"INCLINATION":71.1078,"RA_OF_ASC_NODE":54.5308,"ARG_OF_PERICENTER":102.0861,"MEAN_ANOMALY":63.5395,"EPHEMERIS_TYPE":0,"CLASSIFICATION_TYPE":"U","NORAD_CAT_ID":15772,"ELEMENT_SET_NO":999,"REV_AT_EPOCH":11662,"BSTAR":8.9509771e-5,"MEAN_MOTION_DOT":1.51e-6,"MEAN_MOTION_DDOT":0},{"OBJECT_NAME":"SL-14 R/B","OBJECT_ID":"1985-069B","EPOCH":"2026-03-25T11:56:08.574144","MEAN_MOTION":14.86449881,"ECCENTRICITY":0.00198172,"INCLINATION":82.5304,"RA_OF_ASC_NODE":10.0725,"ARG_OF_PERICENTER":136.5027,"MEAN_ANOMALY":223.7757,"EPHEMERIS_TYPE":0,"CLASSIFICATION_TYPE":"U","NORAD_CAT_ID":15945,"ELEMENT_SET_NO":999,"REV_AT_EPOCH":17518,"BSTAR":5.4546168e-5,"MEAN_MOTION_DOT":5.08e-6,"MEAN_MOTION_DDOT":0},{"OBJECT_NAME":"SL-16 R/B","OBJECT_ID":"1985-097B","EPOCH":"2026-03-25T09:17:10.970592","MEAN_MOTION":14.16603118,"ECCENTRICITY":0.00095195,"INCLINATION":71.0009,"RA_OF_ASC_NODE":107.506,"ARG_OF_PERICENTER":241.3156,"MEAN_ANOMALY":214.274,"EPHEMERIS_TYPE":0,"CLASSIFICATION_TYPE":"U","NORAD_CAT_ID":16182,"ELEMENT_SET_NO":999,"REV_AT_EPOCH":8945,"BSTAR":7.5684939e-5,"MEAN_MOTION_DOT":1.03e-6,"MEAN_MOTION_DDOT":0}]
